SAUDISAT 1C (SO-50)     
1 27607U 02058C   26193.91399671  .00000395  00000+0  64575-4 0  9990
2 27607  64.5517  49.3840 0074594 257.6999 101.5749 14.83095930268270
SAUDISAT 2              
1 28371U 04025F   26194.47422581  .00000106  00000+0  34843-4 0  9999
2 28371  98.5519 195.1367 0023979 213.5917 146.3761 14.56697734169578
SAUDISAT 3              
1 31118U 07012B   26194.43941756  .00000108  00000+0  25645-4 0  9999
2 31118  98.1467 144.8591 0015483 139.9353 220.2998 14.71439767 31608
PISAT                   
1 41784U 16059B   26194.50436384  .00000475  00000+0  88466-4 0  9991
2 41784  97.8190 193.8276 0030381 119.9868 240.4360 14.69027907523603
FLYING LAPTOP           
1 42831U 17042G   26194.51381374  .00002065  00000+0  16438-3 0  9993
2 42831  97.4792 349.0548 0019756  37.9105 322.3507 15.01306088490405
SALSAT                  
1 46495U 20068K   26194.50246523  .00004373  00000+0  15263-3 0  9999
2 46495  97.8854 199.1769 0008994 199.0887 161.0016 15.30157505319386
